SENTINEL-2B             
1 42063U 17013A   24186.20056011  .00000199  00000+0  92497-4 0  9996
2 42063  98.5689 260.2241 0001174  94.8735 265.2582 14.30819707382696
